ECHOSTAR 23             
1 42070U 17014A   25143.60727086 -.00000047  00000+0  00000+0 0  9997
2 42070   0.0174 314.8706 0001646 109.5047 285.8001  1.00269869 30018
WGS F9 (USA 275)        
1 42075U 17016A   25143.87202635 -.00000087  00000+0  00000+0 0  9995
2 42075   0.0107 289.2300 0000333 346.0878 268.3450  1.00270373 30023
SES-10                  
1 42432U 17017A   25143.00600566 -.00000263  00000+0  00000+0 0  9999
2 42432   0.0169   6.9359 0002412  58.9511 110.2509  1.00273655 29832
CHINASAT 16 (SJ-13)     
1 42662U 17018A   25143.25378031 -.00000343  00000+0  00000+0 0  9990
2 42662   0.0446 102.7318 0004097 139.0876 201.2058  1.00267708 29822
KOREASAT 7              
1 42691U 17023A   25144.04017593 -.00000352  00000+0  00000+0 0  9999
2 42691   0.0219 343.3380 0001242  61.8866 327.0124  1.00273666 29544
SGDC                    
1 42692U 17023B   25143.53745804 -.00000240  00000+0  00000+0 0  9992
2 42692   0.0358  83.5924 0002560 359.3483 277.0995  1.00270134 29547
GSAT-9                  
1 42695U 17024A   25144.46487234 -.00000276  00000+0  00000+0 0  9998
2 42695   0.0580 255.7807 0001807 141.1354 110.0492  1.00268500 29538
INMARSAT 5-F4           
1 42698U 17025A   25143.04975505  .00000085  00000+0  00000+0 0  9995
2 42698   0.0129 328.6057 0000131  88.0199 258.7167  1.00268781 29363
SES-15                  
1 42709U 17026A   25143.86306014  .00000070  00000+0  00000+0 0  9996
2 42709   0.0311  32.7151 0000320 339.5167  51.0322  1.00269028  3539
QZS-2 (MICHIBIKI-2)     
1 42738U 17028A   25142.61876419 -.00000191  00000+0  00000+0 0  9998
2 42738  40.0325 248.8590 0761958 268.9553  85.5077  1.00291043  3713
VIASAT-2                
1 42740U 17029A   25143.56850303 -.00000255  00000+0  00000+0 0  9992
2 42740   0.0148 279.0961 0000285  48.6579  48.4384  1.00270291 29295
EUTELSAT 172B           
1 42741U 17029B   25143.91017132  .00000004  00000+0  00000+0 0  9998
2 42741   0.0129 248.4709 0000189 291.1034 201.8625  1.00271068 29813
GSAT-19                 
1 42747U 17031A   25143.89350523  .00000134  00000+0  00000+0 0  9992
2 42747   0.0169 290.2817 0005456 152.5503 168.4545  1.00271707 29236
ECHOSTAR 21             
1 42749U 17032A   25143.86711556  .00000072  00000+0  00000+0 0  9990
2 42749   2.0227 332.5831 0002388  75.0443 156.5167  1.00269882 29211
BULGARIASAT-1           
1 42801U 17038A   25143.38933596  .00000021  00000+0  00000+0 0  9996
2 42801   0.0316 113.2688 0003114 328.7291 301.3122  1.00271977 29004
HELLAS-SAT 3            
1 42814U 17040A   25143.88219135  .00000162  00000+0  00000+0 0  9990
2 42814   0.0606  65.2536 0004895 339.6068 193.4480  1.00271971 28907
GSAT-17                 
1 42815U 17040B   25143.87892047 -.00000249  00000+0  00000+0 0  9996
2 42815   0.0531 108.1175 0002168 201.8815 341.6399  1.00272034 28886
INTELSAT 35E (IS-35E)   
1 42818U 17041A   25143.86759546 -.00000228  00000+0  00000+0 0  9992
2 42818   0.0162 296.8183 0001945 116.0142 106.7365  1.00271396 28901
COSMOS 2520             
1 42907U 17046A   25143.52637623  .00000146  00000+0  00000+0 0  9998
2 42907   0.0286  90.4311 0000068 121.6317 263.8219  1.00274268 28497
TDRS 13                 
1 42915U 17047A   25144.01489374 -.00000097  00000+0  00000+0 0  9997
2 42915   3.4543 352.7406 0015401 108.0510 134.8202  1.00270846 28474
QZS-3 (MICHIBIKI-3)     
1 42917U 17048A   25144.51572444 -.00000339  00000+0  00000+0 0  9995
2 42917   0.0588 148.8011 0002578 277.8944 128.3098  1.00274991 28477
AMAZONAS 5              
1 42934U 17053A   25142.91686124 -.00000273  00000+0  00000+0 0  9990
2 42934   0.0326 319.7084 0003256  59.2866 130.8558  1.00271495 28132
ASIASAT 9               
1 42942U 17057A   25144.18794545 -.00000350  00000+0  00000+0 0  9997
2 42942   0.0104  85.5838 0002338 340.0675   6.1491  1.00269997 28044
INTELSAT 37E (IS-37E)   
1 42950U 17059A   25144.42544944 -.00000132  00000+0  00000+0 0  9999
2 42950   0.0179 330.3963 0002078  99.0517 307.9769  1.00271335 28142
BSAT-4A                 
1 42951U 17059B   25144.03895961 -.00000341  00000+0  00000+0 0  9997
2 42951   0.0591  54.0570 0004176   2.2393 309.4647  1.00270133 28051
QZS-4 (MICHIBIKI-4)     
1 42965U 17062A   25143.90330328 -.00000322  00000+0  00000+0 0  9991
2 42965  40.3403 348.4530 0746018 271.1387  85.6733  1.00257994 27901
SES-11 (ECHOSTAR 105)   
1 42967U 17063A   25144.45185112 -.00000080  00000+0  00000+0 0  9995
2 42967   0.0132 343.3496 0002491  88.3684 228.2968  1.00271387 27905
KOREASAT 5A             
1 42984U 17067A   25143.95322704 -.00000348  00000+0  00000+0 0  9999
2 42984   0.0188 297.3478 0001190  79.2881 321.4854  1.00264784 27730
ALCOMSAT 1              
1 43039U 17078A   25144.07919780 -.00000176  00000+0  00000+0 0  9992
2 43039   0.0713 111.6453 0001139 323.3197 170.6810  1.00272328 27372
SBIRS GEO-3 (USA 282)   
1 43162U 18009A   25143.77142291  .00000134  00000+0  00000+0 0  9998
2 43162   2.1026 351.7260 0001905  64.3122 303.9060  1.00271641 26940
AL YAH 3                
1 43174U 18012A   25144.43072384 -.00000146  00000+0  00000+0 0  9998
2 43174   0.5457  88.1603 0004096 330.1671 318.9148  1.00271658 26943
SES-14                  
1 43175U 18012B   25142.79411291 -.00000269  00000+0  00000+0 0  9996
2 43175   0.0234  26.6033 0000906  31.9185  60.5264  1.00270285  3116
GOES 17                 
1 43226U 18022A   25143.85369462 -.00000083  00000+0  00000+0 0  9998
2 43226   0.0102 257.1180 0002660 205.9938 341.5188  1.00270818 26539
HISPASAT 30W-6          
1 43228U 18023A   25143.40600097 -.00000207  00000+0  00000+0 0  9992
2 43228   0.0459  38.9537 0006182  19.8550 298.6260  1.00270556 26590
SUPERBIRD-B3            
1 43271U 18033A   25143.83518911 -.00000083  00000+0  00000+0 0  9993
2 43271   0.0300  72.2702 0001008  15.7988 256.2747  1.00271753 26152
HYLAS 4                 
1 43272U 18033B   25143.72497765 -.00000224  00000+0  00000+0 0  9992
2 43272   0.0527 273.4469 0001335 159.0344  36.5284  1.00271929 26172
IRNSS-1I                
1 43286U 18035A   25143.88549280  .00000094  00000+0  00000+0 0  9990
2 43286  29.0911  80.2660 0018648 184.0292 351.2065  1.00271848 26160
USA 283                 
1 43339U 18036A   25143.41622191 -.00000308  00000+0  00000+0 0  9991
2 43339   0.0145 302.7387 0000371 244.5574 337.9180  1.00268705 21380
COSMOS 2526             
1 43432U 18037A   25143.40010124 -.00000335  00000+0  00000+0 0  9992
2 43432   0.0111 105.0470 0000355 100.8025 307.5079  1.00272171 26063
APSTAR-6C               
1 43450U 18041A   25142.97892238 -.00000309  00000+0  00000+0 0  9993
2 43450   0.0268 329.3165 0000388 345.2831  52.6597  1.00268267 25898
BANGABANDHUSAT-1        
1 43463U 18044A   25144.51507264 -.00000353  00000+0  00000+0 0  9993
2 43463   0.0305 119.6304 0002222 313.0743 114.1887  1.00271558 25830
SES-12                  
1 43488U 18049A   25144.57499289 -.00000261  00000+0  00000+0 0  9996
2 43488   0.0314  46.1246 0001302 253.9617 244.3432  1.00275382 25512
FENGYUN 2H              
1 43491U 18050A   25143.89018434 -.00000118  00000+0  00000+0 0  9996
2 43491   2.0278  83.6811 0000626 117.0129  80.7625  1.00268720 25533
BEIDOU-2 IGSO-7         
1 43539U 18057A   25143.70082860 -.00000039  00000+0  00000+0 0  9992
2 43539  55.1620 166.4315 0089377 236.4324 203.8542  1.00263962 25223
TELSTAR 19V             
1 43562U 18059A   25143.71906979 -.00000270  00000+0  00000+0 0  9994
2 43562   0.0294 177.6913 0002236 285.5597 334.1869  1.00269342 25238
TELKOM 4 (MERAH PUTIH)  
1 43587U 18064A   25143.71544086 -.00000335  00000+0  00000+0 0  9996
2 43587   0.0146 296.8928 0000986 123.9181 186.3182  1.00272668 24975
TELSTAR 18V             
1 43611U 18069A   25143.90182632 -.00000284  00000+0  00000+0 0  9998
2 43611   0.0161 284.4401 0001937 141.9515 278.0241  1.00271065 24725
AZERSPACE 2 (IS-38)     
1 43632U 18074A   25144.10530562  .00000146  00000+0  00000+0 0  9995
2 43632   0.0030   6.4620 0001145  57.3195 261.1931  1.00271033 24547
HORIZONS-3E             
1 43633U 18074B   25142.86433657 -.00000021  00000+0  00000+0 0  9997
2 43633   0.0444 146.1391 0000275 175.2370  39.5181  1.00269419 24428
AEHF-4 (USA 288)        
1 43651U 18079A   25144.38572824 -.00000268  00000+0  00000+0 0  9994
2 43651   1.4943 344.1018 0049088   6.9717 322.4862  1.00273758 24390
BEIDOU-3 G1             
1 43683U 18085A   25135.62074543 -.00000265  00000+0  00000+0 0  9995
2 43683   3.0254  98.8918 0004989  11.3655 126.6744  1.00265207 24070
GSAT-29                 
1 43698U 18089A   25144.09975332  .00000095  00000+0  00000+0 0  9992
2 43698   0.0158 314.5420 0003061  98.6987 279.6443  1.00269792 23918
ES'HAIL 2               
1 43700U 18090A   25143.98169637  .00000154  00000+0  00000+0 0  9994
2 43700   0.0140 354.8758 0001941 107.9112 158.2473  1.00271541 24015
GEO-KOMPSAT-2A          
1 43823U 18100A   25144.47104083 -.00000335  00000+0  00000+0 0  9993
2 43823   0.0240  71.7915 0001675   0.8399 107.5141  1.00271208 23764
GSAT-11                 
1 43824U 18100B   25144.18933775 -.00000067  00000+0  00000+0 0  9992
2 43824   0.0734 266.0825 0007986 173.2785 304.8376  1.00270883 23734
GSAT-7A                 
1 43864U 18105A   25143.88688289  .00000035  00000+0  00000+0 0  9998
2 43864   0.0582 256.4120 0002892 146.0534 221.3762  1.00273275 23540
COSMOS 2533             
1 43867U 18107A   25143.53132840 -.00000028  00000+0  00000+0 0  9995
2 43867   0.0196  60.9421 0000284 194.2146 247.4859  1.00268859 23518
TJS-3                   
1 43874U 18110A   25144.76896815 -.00000133  00000+0  00000+0 0  9999
2 43874   1.5419  85.2039 0002145  43.3250 117.8430  1.00006637 23589
ZHONGXING-2D            
1 43920U 19001A   25144.47138836 -.00000328  00000+0  00000+0 0  9997
2 43920   0.0013 215.1925 0001207 325.1776   1.6512  1.00269787 23459
